{
 "generated_at": "2026-06-20T08:22:11Z",
 "sources": [
  {
   "name": "CelesTrak",
   "url": "https://celestrak.org/NORAD/elements/",
   "license": "frei verfügbar; Attribution. Ursprünglich USSPACECOM/Space-Track."
  },
  {
   "name": "GCAT (J. McDowell, planet4589.org)",
   "url": "https://planet4589.org/space/gcat/",
   "license": "CC-BY 4.0"
  }
 ],
 "satellites": [
  {
   "norad": 43226,
   "name": "GOES 17",
   "intl": "2018-022A",
   "group": "weather",
   "gcat": {
    "class": "C",
    "category": "MET",
    "owner": "NOAA",
    "state": "US"
   },
   "omm": {
    "OBJECT_NAME": "GOES 17",
    "OBJECT_ID": "2018-022A",
    "EPOCH": "2026-06-19T19:17:44.368800",
    "MEAN_MOTION": 1.00269497,
    "ECCENTRICITY": 0.0000553,
    "INCLINATION": 0.9448,
    "RA_OF_ASC_NODE": 85.6637,
    "ARG_OF_PERICENTER": 26.9886,
    "MEAN_ANOMALY": 355.2755,
    "EPHEMERIS_TYPE": 0,
    "CLASSIFICATION_TYPE": "U",
    "NORAD_CAT_ID": 43226,
    "ELEMENT_SET_NO": 999,
    "REV_AT_EPOCH": 3045,
    "BSTAR": 0,
    "MEAN_MOTION_DOT": -0.00000188,
    "MEAN_MOTION_DDOT": 0
   }
  },
  {
   "norad": 51850,
   "name": "GOES 18",
   "intl": "2022-021A",
   "group": "weather",
   "gcat": {
    "class": "C",
    "category": "MET",
    "owner": "NOAA",
    "state": "US"
   },
   "omm": {
    "OBJECT_NAME": "GOES 18",
    "OBJECT_ID": "2022-021A",
    "EPOCH": "2026-06-19T19:04:00.687360",
    "MEAN_MOTION": 1.00271801,
    "ECCENTRICITY": 0.0000394,
    "INCLINATION": 0.0365,
    "RA_OF_ASC_NODE": 172.6511,
    "ARG_OF_PERICENTER": 326.3071,
    "MEAN_ANOMALY": 278.0456,
    "EPHEMERIS_TYPE": 0,
    "CLASSIFICATION_TYPE": "U",
    "NORAD_CAT_ID": 51850,
    "ELEMENT_SET_NO": 999,
    "REV_AT_EPOCH": 661,
    "BSTAR": 0,
    "MEAN_MOTION_DOT": 9.1e-7,
    "MEAN_MOTION_DDOT": 0
   }
  },
  {
   "norad": 60133,
   "name": "GOES 19",
   "intl": "2024-119A",
   "group": "weather",
   "gcat": {
    "class": "C",
    "category": "MET",
    "owner": "NOAA",
    "state": "US"
   },
   "omm": {
    "OBJECT_NAME": "GOES 19",
    "OBJECT_ID": "2024-119A",
    "EPOCH": "2026-06-19T09:05:52.728864",
    "MEAN_MOTION": 1.00309682,
    "ECCENTRICITY": 0.00023066,
    "INCLINATION": 0.0249,
    "RA_OF_ASC_NODE": 218.9773,
    "ARG_OF_PERICENTER": 265.904,
    "MEAN_ANOMALY": 204.0106,
    "EPHEMERIS_TYPE": 0,
    "CLASSIFICATION_TYPE": "U",
    "NORAD_CAT_ID": 60133,
    "ELEMENT_SET_NO": 999,
    "REV_AT_EPOCH": 698,
    "BSTAR": 0,
    "MEAN_MOTION_DOT": -0.00000258,
    "MEAN_MOTION_DDOT": 0
   }
  },
  {
   "norad": 41875,
   "name": "GOKTURK 1A",
   "intl": "2016-073A",
   "group": "resource",
   "gcat": {
    "class": "D",
    "category": "IMG",
    "owner": "MSBTR",
    "state": "TR"
   },
   "omm": {
    "OBJECT_NAME": "GOKTURK 1A",
    "OBJECT_ID": "2016-073A",
    "EPOCH": "2026-06-19T20:16:55.623936",
    "MEAN_MOTION": 14.62776322,
    "ECCENTRICITY": 0.0001423,
    "INCLINATION": 98.1245,
    "RA_OF_ASC_NODE": 65.478,
    "ARG_OF_PERICENTER": 77.2506,
    "MEAN_ANOMALY": 282.8854,
    "EPHEMERIS_TYPE": 0,
    "CLASSIFICATION_TYPE": "U",
    "NORAD_CAT_ID": 41875,
    "ELEMENT_SET_NO": 999,
    "REV_AT_EPOCH": 50921,
    "BSTAR": 0.000063408,
    "MEAN_MOTION_DOT": 0.00000277,
    "MEAN_MOTION_DDOT": 0
   }
  },
  {
   "norad": 39030,
   "name": "GOKTURK 2",
   "intl": "2012-073A",
   "group": "resource",
   "gcat": {
    "class": "D",
    "category": "IMG",
    "owner": "MSBTR",
    "state": "TR"
   },
   "omm": {
    "OBJECT_NAME": "GOKTURK 2",
    "OBJECT_ID": "2012-073A",
    "EPOCH": "2026-06-19T19:02:22.149888",
    "MEAN_MOTION": 14.75546297,
    "ECCENTRICITY": 0.0001503,
    "INCLINATION": 97.6815,
    "RA_OF_ASC_NODE": 8.0936,
    "ARG_OF_PERICENTER": 56.8159,
    "MEAN_ANOMALY": 303.3195,
    "EPHEMERIS_TYPE": 0,
    "CLASSIFICATION_TYPE": "U",
    "NORAD_CAT_ID": 39030,
    "ELEMENT_SET_NO": 999,
    "REV_AT_EPOCH": 72489,
    "BSTAR": 0.00011255,
    "MEAN_MOTION_DOT": 0.0000072,
    "MEAN_MOTION_DDOT": 0
   }
  },
  {
   "norad": 33492,
   "name": "GOSAT (IBUKI)",
   "intl": "2009-002A",
   "group": "resource",
   "gcat": {
    "class": "C",
    "category": "EOSCI",
    "owner": "JAXA",
    "state": "J"
   },
   "omm": {
    "OBJECT_NAME": "GOSAT (IBUKI)",
    "OBJECT_ID": "2009-002A",
    "EPOCH": "2026-06-19T17:30:09.600192",
    "MEAN_MOTION": 14.67540024,
    "ECCENTRICITY": 0.000148,
    "INCLINATION": 98.0889,
    "RA_OF_ASC_NODE": 281.7781,
    "ARG_OF_PERICENTER": 80.5737,
    "MEAN_ANOMALY": 279.5634,
    "EPHEMERIS_TYPE": 0,
    "CLASSIFICATION_TYPE": "U",
    "NORAD_CAT_ID": 33492,
    "ELEMENT_SET_NO": 999,
    "REV_AT_EPOCH": 93183,
    "BSTAR": 0.0001538,
    "MEAN_MOTION_DOT": 0.00000824,
    "MEAN_MOTION_DDOT": 0
   }
  },
  {
   "norad": 64694,
   "name": "GOSAT-GW (IBUKI GW)",
   "intl": "2025-141A",
   "group": "resource",
   "gcat": {
    "class": "C",
    "category": "EOSCI",
    "owner": "JAXA",
    "state": "J"
   },
   "omm": {
    "OBJECT_NAME": "GOSAT-GW (IBUKI GW)",
    "OBJECT_ID": "2025-141A",
    "EPOCH": "2026-06-19T20:22:53.196384",
    "MEAN_MOTION": 14.67554638,
    "ECCENTRICITY": 0.0001441,
    "INCLINATION": 98.0572,
    "RA_OF_ASC_NODE": 108.1229,
    "ARG_OF_PERICENTER": 82.9399,
    "MEAN_ANOMALY": 277.1969,
    "EPHEMERIS_TYPE": 0,
    "CLASSIFICATION_TYPE": "U",
    "NORAD_CAT_ID": 64694,
    "ELEMENT_SET_NO": 999,
    "REV_AT_EPOCH": 5223,
    "BSTAR": 0.000012909,
    "MEAN_MOTION_DOT": 2.5e-7,
    "MEAN_MOTION_DDOT": 0
   }
  },
  {
   "norad": 39574,
   "name": "GPM-CORE",
   "intl": "2014-009C",
   "group": "resource",
   "gcat": {
    "class": "C",
    "category": "EOSCI",
    "owner": "GSFC",
    "state": "US"
   },
   "omm": {
    "OBJECT_NAME": "GPM-CORE",
    "OBJECT_ID": "2014-009C",
    "EPOCH": "2026-06-19T19:10:59.690208",
    "MEAN_MOTION": 15.44619429,
    "ECCENTRICITY": 0.0011729,
    "INCLINATION": 64.9723,
    "RA_OF_ASC_NODE": 299.3784,
    "ARG_OF_PERICENTER": 252.5245,
    "MEAN_ANOMALY": 107.4614,
    "EPHEMERIS_TYPE": 0,
    "CLASSIFICATION_TYPE": "U",
    "NORAD_CAT_ID": 39574,
    "ELEMENT_SET_NO": 999,
    "REV_AT_EPOCH": 69821,
    "BSTAR": 0.00021095,
    "MEAN_MOTION_DOT": 0.00009653,
    "MEAN_MOTION_DDOT": 0
   }
  },
  {
   "norad": 31113,
   "name": "HAIYANG-1B",
   "intl": "2007-010A",
   "group": "resource",
   "gcat": {
    "class": null,
    "category": null,
    "owner": null,
    "state": null
   },
   "omm": {
    "OBJECT_NAME": "HAIYANG-1B",
    "OBJECT_ID": "2007-010A",
    "EPOCH": "2026-06-19T14:12:29.990592",
    "MEAN_MOTION": 14.31027414,
    "ECCENTRICITY": 0.00131805,
    "INCLINATION": 98.3495,
    "RA_OF_ASC_NODE": 152.344,
    "ARG_OF_PERICENTER": 188.9814,
    "MEAN_ANOMALY": 171.1136,
    "EPHEMERIS_TYPE": 0,
    "CLASSIFICATION_TYPE": "U",
    "NORAD_CAT_ID": 31113,
    "ELEMENT_SET_NO": 999,
    "REV_AT_EPOCH": 98,
    "BSTAR": 0.000040663001,
    "MEAN_MOTION_DOT": 6.5e-7,
    "MEAN_MOTION_DDOT": 0
   }
  },
  {
   "norad": 37781,
   "name": "HAIYANG-2A",
   "intl": "2011-043A",
   "group": "resource",
   "gcat": {
    "class": null,
    "category": null,
    "owner": null,
    "state": null
   },
   "omm": {
    "OBJECT_NAME": "HAIYANG-2A",
    "OBJECT_ID": "2011-043A",
    "EPOCH": "2026-06-19T19:18:54.705312",
    "MEAN_MOTION": 13.74331458,
    "ECCENTRICITY": 0.0005807,
    "INCLINATION": 99.3393,
    "RA_OF_ASC_NODE": 173.4232,
    "ARG_OF_PERICENTER": 86.3962,
    "MEAN_ANOMALY": 273.7851,
    "EPHEMERIS_TYPE": 0,
    "CLASSIFICATION_TYPE": "U",
    "NORAD_CAT_ID": 37781,
    "ELEMENT_SET_NO": 999,
    "REV_AT_EPOCH": 74701,
    "BSTAR": -0.00016614,
    "MEAN_MOTION_DOT": -0.000002,
    "MEAN_MOTION_DDOT": 0
   }
  }
 ]
}
